{
  "type": "FeatureCollection",
  "features": [
    {
      "type": "Feature",
      "properties": {
        "norad_id": 37781,
        "name": "HAIYANG-2A",
        "group": "resource",
        "lat": -21.177381037322522,
        "lon": 160.73829482409664,
        "alt_km": 973.679072362419,
        "timestamp": "2025-12-09T09:46:47.303836+00:00",
        "meta_object_name": "HAIYANG-2A",
        "meta_object_id": "2011-043A",
        "meta_epoch": "2025-12-09T03:34:54.633216",
        "meta_mean_motion": 13.78834016,
        "meta_eccentricity": 0.0001672,
        "meta_inclination": 99.3373,
        "meta_ra_of_asc_node": 344.1386,
        "meta_arg_of_pericenter": 87.8376,
        "meta_mean_anomaly": 272.2967,
        "meta_ephemeris_type": 0,
        "meta_classification_type": "U",
        "meta_norad_cat_id": 37781,
        "meta_element_set_no": 999,
        "meta_rev_at_epoch": 72049,
        "meta_bstar": -0.00013558,
        "meta_mean_motion_dot": -1.82e-06,
        "meta_mean_motion_ddot": 0,
        "tle_line1": "1 37781U 11043A   25343.14924344 -.00000182  00000+0 -13558-3 0  9990",
        "tle_line2": "2 37781  99.3373 344.1386 0001672  87.8376 272.2967 13.78834016720494"
      },
      "geometry": {
        "type": "Point",
        "coordinates": [
          160.73829482409664,
          -21.177381037322522
        ]
      }
    },
    {
      "type": "Feature",
      "properties": {
        "norad_id": 37791,
        "name": "RASAT",
        "group": "resource",
        "lat": -28.762563452515142,
        "lon": 77.17889723688825,
        "alt_km": 677.3340576278006,
        "timestamp": "2025-12-09T09:46:47.303847+00:00",
        "meta_object_name": "RASAT",
        "meta_object_id": "2011-044D",
        "meta_epoch": "2025-12-09T05:14:39.829920",
        "meta_mean_motion": 14.67900847,
        "meta_eccentricity": 0.0021939,
        "meta_inclination": 98.0655,
        "meta_ra_of_asc_node": 72.5286,
        "meta_arg_of_pericenter": 75.5197,
        "meta_mean_anomaly": 337.7265,
        "meta_ephemeris_type": 0,
        "meta_classification_type": "U",
        "meta_norad_cat_id": 37791,
        "meta_element_set_no": 999,
        "meta_rev_at_epoch": 76531,
        "meta_bstar": 0.00012436,
        "meta_mean_motion_dot": 6.65e-06,
        "meta_mean_motion_ddot": 0,
        "tle_line1": "1 37791U 11044D   25343.21851655  .00000665  00000+0  12436-3 0  9992",
        "tle_line2": "2 37791  98.0655  72.5286 0021939  75.5197 337.7265 14.67900847765311"
      },
      "geometry": {
        "type": "Point",
        "coordinates": [
          77.17889723688825,
          -28.762563452515142
        ]
      }
    },
    {
      "type": "Feature",
      "properties": {
        "norad_id": 37841,
        "name": "SRMSAT",
        "group": "resource",
        "lat": 8.382377909063521,
        "lon": 152.06101246877333,
        "alt_km": 853.4631364880097,
        "timestamp": "2025-12-09T09:46:47.303858+00:00",
        "meta_object_name": "SRMSAT",
        "meta_object_id": "2011-058D",
        "meta_epoch": "2025-12-08T18:35:17.755584",
        "meta_mean_motion": 14.11509665,
        "meta_eccentricity": 0.00117062,
        "meta_inclination": 19.9702,
        "meta_ra_of_asc_node": 131.9502,
        "meta_arg_of_pericenter": 269.448,
        "meta_mean_anomaly": 132.3331,
        "meta_ephemeris_type": 0,
        "meta_classification_type": "U",
        "meta_norad_cat_id": 37841,
        "meta_element_set_no": 999,
        "meta_rev_at_epoch": 73088,
        "meta_bstar": 0.00016661288,
        "meta_mean_motion_dot": 5.72e-06,
        "meta_mean_motion_ddot": 0,
        "tle_line1": "1 37841U 11058D   25342.77451106  .00000572  00000+0  16661-3 0  9991",
        "tle_line2": "2 37841  19.9702 131.9502 0011706 269.4480 132.3331 14.11509665730882"
      },
      "geometry": {
        "type": "Point",
        "coordinates": [
          152.06101246877333,
          8.382377909063521
        ]
      }
    },
    {
      "type": "Feature",
      "properties": {
        "norad_id": 38012,
        "name": "PLEIADES 1A",
        "group": "resource",
        "lat": -57.48861846041972,
        "lon": -136.82007840582148,
        "alt_km": 705.8315269442446,
        "timestamp": "2025-12-09T09:46:47.303868+00:00",
        "meta_object_name": "PLEIADES 1A",
        "meta_object_id": "2011-076F",
        "meta_epoch": "2025-12-09T05:41:54.998304",
        "meta_mean_motion": 14.58555618,
        "meta_eccentricity": 0.0001327,
        "meta_inclination": 98.1826,
        "meta_ra_of_asc_node": 56.06,
        "meta_arg_of_pericenter": 74.454,
        "meta_mean_anomaly": 351.5316,
        "meta_ephemeris_type": 0,
        "meta_classification_type": "U",
        "meta_norad_cat_id": 38012,
        "meta_element_set_no": 999,
        "meta_rev_at_epoch": 74430,
        "meta_bstar": 0.0001075,
        "meta_mean_motion_dot": 4.54e-06,
        "meta_mean_motion_ddot": 0,
        "tle_line1": "1 38012U 11076F   25343.23744211  .00000454  00000+0  10750-3 0  9998",
        "tle_line2": "2 38012  98.1826  56.0600 0001327  74.4540 351.5316 14.58555618744304"
      },
      "geometry": {
        "type": "Point",
        "coordinates": [
          -136.82007840582148,
          -57.48861846041972
        ]
      }
    },
    {
      "type": "Feature",
      "properties": {
        "norad_id": 38038,
        "name": "ZIYUAN 1-02C (ZY 1-02C)",
        "group": "resource",
        "lat": 31.700887859883856,
        "lon": 44.2249711287795,
        "alt_km": 765.3929487951809,
        "timestamp": "2025-12-09T09:46:47.303879+00:00",
        "meta_object_name": "ZIYUAN 1-02C (ZY 1-02C)",
        "meta_object_id": "2011-079A",
        "meta_epoch": "2025-12-09T05:03:18.921888",
        "meta_mean_motion": 14.38005577,
        "meta_eccentricity": 0.0007007,
        "meta_inclination": 98.4335,
        "meta_ra_of_asc_node": 49.2893,
        "meta_arg_of_pericenter": 148.0042,
        "meta_mean_anomaly": 305.7516,
        "meta_ephemeris_type": 0,
        "meta_classification_type": "U",
        "meta_norad_cat_id": 38038,
        "meta_element_set_no": 999,
        "meta_rev_at_epoch": 73190,
        "meta_bstar": 0.0002043,
        "meta_mean_motion_dot": 5.75e-06,
        "meta_mean_motion_ddot": 0,
        "tle_line1": "1 38038U 11079A   25343.21063567  .00000575  00000+0  20430-3 0  9995",
        "tle_line2": "2 38038  98.4335  49.2893 0007007 148.0042 305.7516 14.38005577731901"
      },
      "geometry": {
        "type": "Point",
        "coordinates": [
          44.2249711287795,
          31.700887859883856
        ]
      }
    },
    {
      "type": "Feature",
      "properties": {
        "norad_id": 38046,
        "name": "ZIYUAN 3-1 (ZY 3-1)",
        "group": "resource",
        "lat": 66.94861835868562,
        "lon": 32.52708580146914,
        "alt_km": 357.7928813248718,
        "timestamp": "2025-12-09T09:46:47.303890+00:00",
        "meta_object_name": "ZIYUAN 3-1 (ZY 3-1)",
        "meta_object_id": "2012-001A",
        "meta_epoch": "2025-12-08T22:46:06.225888",
        "meta_mean_motion": 15.67829744,
        "meta_eccentricity": 0.00019346,
        "meta_inclination": 97.1753,
        "meta_ra_of_asc_node": 49.279,
        "meta_arg_of_pericenter": 8.6778,
        "meta_mean_anomaly": 351.4516,
        "meta_ephemeris_type": 0,
        "meta_classification_type": "U",
        "meta_norad_cat_id": 38046,
        "meta_element_set_no": 999,
        "meta_rev_at_epoch": 77437,
        "meta_bstar": 0.00074480272,
        "meta_mean_motion_dot": 0.00082329,
        "meta_mean_motion_ddot": 0,
        "tle_line1": "1 38046U 12001A   25342.94868317  .00082329  00000+0  74480-3 0  9996",
        "tle_line2": "2 38046  97.1753  49.2790 0001934   8.6778 351.4516 15.67829744774375"
      },
      "geometry": {
        "type": "Point",
        "coordinates": [
          32.52708580146914,
          66.94861835868562
        ]
      }
    },
    {
      "type": "Feature",
      "properties": {
        "norad_id": 38338,
        "name": "ARIRANG-3 (KOMPSAT-3)",
        "group": "resource",
        "lat": 78.42297394131866,
        "lon": 163.6456787655183,
        "alt_km": 681.5803242558613,
        "timestamp": "2025-12-09T09:46:47.303901+00:00",
        "meta_object_name": "ARIRANG-3 (KOMPSAT-3)",
        "meta_object_id": "2012-025B",
        "meta_epoch": "2025-12-09T04:24:16.096896",
        "meta_mean_motion": 14.61704773,
        "meta_eccentricity": 0.0005609,
        "meta_inclination": 98.3317,
        "meta_ra_of_asc_node": 297.7462,
        "meta_arg_of_pericenter": 350.4949,
        "meta_mean_anomaly": 9.6145,
        "meta_ephemeris_type": 0,
        "meta_classification_type": "U",
        "meta_norad_cat_id": 38338,
        "meta_element_set_no": 999,
        "meta_rev_at_epoch": 72358,
        "meta_bstar": 0.00020012,
        "meta_mean_motion_dot": 9.48e-06,
        "meta_mean_motion_ddot": 0,
        "tle_line1": "1 38338U 12025B   25343.18351964  .00000948  00000+0  20012-3 0  9997",
        "tle_line2": "2 38338  98.3317 297.7462 0005609 350.4949   9.6145 14.61704773723589"
      },
      "geometry": {
        "type": "Point",
        "coordinates": [
          163.6456787655183,
          78.42297394131866
        ]
      }
    }
  ]
}